
# Worst residual: 29.03 km
# MJD 59899.000000 (2022 Nov 16  0:00)
XL8D89E
1 89996U 00000AAD 22320.49919926  .00000000  00000-0  00000-0 2 14526
2 89996 065.9301 319.9895 1461825 252.3255 215.1953 00.01025510    02

# Worst residual: 31.03 km
# MJD 59900.000000 (2022 Nov 17  0:00)
XL8D89E
1 89996U 00000AAD 22321.49919926  .00000000  00000-0  00000-0 2 14527
2 89996 066.0385 319.3551 1532705 254.1424 217.3633 00.01036724    01

# Worst residual: 32.62 km
# MJD 59901.000000 (2022 Nov 18  0:00)
XL8D89E
1 89996U 00000AAD 22322.49919926  .00000000  00000-0  00000-0 2 14528
2 89996 066.1874 318.6896 1601511 256.1614 219.3187 00.01048378    08

# Worst residual: 33.65 km
# MJD 59902.000000 (2022 Nov 19  0:00)
XL8D89E
1 89996U 00000AAD 22323.49919926  .00000000  00000-0  00000-0 2 14529
2 89996 066.3798 317.9989 1666019 258.3430 221.0888 00.01060240    04

# Worst residual: 33.97 km
# MJD 59903.000000 (2022 Nov 20  0:00)
XL8D89E
1 89996U 00000AAD 22324.49919926  .00000000  00000-0  00000-0 2 14520
2 89996 066.6175 317.2915 1723900 260.6496 222.6956 00.01072051    05

# Worst residual: 33.56 km
# MJD 59904.000000 (2022 Nov 21  0:00)
XL8D89E
1 89996U 00000AAD 22325.49919926  .00000000  00000-0  00000-0 2 14521
2 89996 066.8996 316.5797 1772838 263.0450 224.1586 00.01083533    02

# Worst residual: 32.19 km
# MJD 59905.000000 (2022 Nov 22  0:00)
XL8D89E
1 89996U 00000AAD 22326.49919926  .00000000  00000-0  00000-0 2 14522
2 89996 067.2223 315.8787 1810769 265.4926 225.4982 00.01094410    01

# Worst residual: 30.08 km
# MJD 59906.000000 (2022 Nov 23  0:00)
XL8D89E
1 89996U 00000AAD 22327.49919926  .00000000  00000-0  00000-0 2 14523
2 89996 067.5777 315.2064 1836220 267.9553 226.7398 00.01104437    09

# Worst residual: 31.70 km
# MJD 59907.000000 (2022 Nov 24  0:00)
XL8D89E
1 89996U 00000AAD 22328.49919926  .00000000  00000-0  00000-0 2 14524
2 89996 067.9541 314.5812 1848686 270.3961 227.9169 00.01113442    00

# Worst residual: 32.35 km
# MJD 59908.000000 (2022 Nov 25  0:00)
XL8D89E
1 89996U 00000AAD 22329.49919926  .00000000  00000-0  00000-0 2 14525
2 89996 068.3371 314.0192 1848890 272.7794 229.0731 00.01121363    08

# Worst residual: 32.02 km
# MJD 59909.000000 (2022 Nov 26  0:00)
XL8D89E
1 89996U 00000AAD 22330.49919926  .00000000  00000-0  00000-0 2 14527
2 89996 068.7118 313.5315 1838804 275.0730 230.2603 00.01128259    05

# Worst residual: 30.63 km
# MJD 59910.000000 (2022 Nov 27  0:00)
XL8D89E
1 89996U 00000AAD 22331.49919926  .00000000  00000-0  00000-0 2 14528
2 89996 069.0646 313.1230 1821371 277.2500 231.5352 00.01134299    03

# Worst residual: 28.31 km
# MJD 59911.000000 (2022 Nov 28  0:00)
XL8D89E
1 89996U 00000AAD 22332.49919926  .00000000  00000-0  00000-0 2 14529
2 89996 069.3861 312.7918 1800026 279.2894 232.9534 00.01139719    04

# Worst residual: 25.28 km
# MJD 59912.000000 (2022 Nov 29  0:00)
XL8D89E
1 89996U 00000AAD 22333.49919926  .00000000  00000-0  00000-0 2 14520
2 89996 069.6710 312.5306 1778186 281.1770 234.5651 00.01144775    01

# Worst residual: 21.81 km
# MJD 59913.000000 (2022 Nov 30  0:00)
XL8D89E
1 89996U 00000AAD 22334.49919926  .00000000  00000-0  00000-0 2 14521
2 89996 069.9188 312.3291 1758858 282.9044 236.4107 00.01149695    04

# Worst residual: 18.15 km
# MJD 59914.000000 (2022 Dec  1  0:00)
XL8D89E
1 89996U 00000AAD 22335.49919926  .00000000  00000-0  00000-0 2 14522
2 89996 070.1325 312.1756 1744438 284.4695 238.5193 00.01154657    05

# Worst residual: 14.51 km
# MJD 59915.000000 (2022 Dec  2  0:00)
XL8D89E
1 89996U 00000AAD 22336.49919926  .00000000  00000-0  00000-0 2 14523
2 89996 070.3179 312.0589 1736670 285.8757 240.9077 00.01159771    00

# Worst residual: 11.03 km
# MJD 59916.000000 (2022 Dec  3  0:00)
XL8D89E
1 89996U 00000AAD 22337.49919926  .00000000  00000-0  00000-0 2 14524
2 89996 070.4824 311.9690 1736717 287.1326 243.5808 00.01165093    03

# Worst residual: 7.83 km
# MJD 59917.000000 (2022 Dec  4  0:00)
XL8D89E
1 89996U 00000AAD 22338.49919926  .00000000  00000-0  00000-0 2 14525
2 89996 070.6342 311.8980 1745261 288.2561 246.5314 00.01170626    01

# Worst residual: 9.89 km
# MJD 59918.000000 (2022 Dec  5  0:00)
XL8D89E
1 89996U 00000AAD 22339.49919926  .00000000  00000-0  00000-0 2 14526
2 89996 070.7818 311.8402 1762631 289.2677 249.7419 00.01176347    05

# Worst residual: 12.43 km
# MJD 59919.000000 (2022 Dec  6  0:00)
XL8D89E
1 89996U 00000AAD 22340.49919926  .00000000  00000-0  00000-0 2 14528
2 89996 070.9332 311.7921 1788897 290.1948 253.1848 00.01182214    02

# Worst residual: 15.29 km
# MJD 59920.000000 (2022 Dec  7  0:00)
XL8D89E
1 89996U 00000AAD 22341.49919926  .00000000  00000-0  00000-0 2 14529
2 89996 071.0948 311.7524 1823970 291.0694 256.8256 00.01188191    09

# Worst residual: 18.30 km
# MJD 59921.000000 (2022 Dec  8  0:00)
XL8D89E
1 89996U 00000AAD 22342.49919926  .00000000  00000-0  00000-0 2 14520
2 89996 071.2714 311.7214 1867652 291.9262 260.6246 00.01194253    01

# Worst residual: 21.35 km
# MJD 59922.000000 (2022 Dec  9  0:00)
XL8D89E
1 89996U 00000AAD 22343.49919926  .00000000  00000-0  00000-0 2 14521
2 89996 071.4644 311.7012 1919632 292.8004 264.5405 00.01200387    07

# Worst residual: 24.04 km
# MJD 59923.000000 (2022 Dec 10  0:00)
XL8D89E
1 89996U 00000AAD 22344.49919926  .00000000  00000-0  00000-0 2 14522
2 89996 071.6714 311.6942 1979327 293.7214 268.5361 00.01206571    04

# Worst residual: 26.07 km
# MJD 59924.000000 (2022 Dec 11  0:00)
XL8D89E
1 89996U 00000AAD 22345.49919926  .00000000  00000-0  00000-0 2 14523
2 89996 071.8861 311.7023 2045579 294.7030 272.5848 00.01212716    04

# Worst residual: 27.22 km
# MJD 59925.000000 (2022 Dec 12  0:00)
XL8D89E
1 89996U 00000AAD 22346.49919926  .00000000  00000-0  00000-0 2 14524
2 89996 072.1002 311.7262 2116381 295.7330 276.6781 00.01218610    04

# Worst residual: 27.49 km
# MJD 59926.000000 (2022 Dec 13  0:00)
XL8D89E
1 89996U 00000AAD 22347.49919926  .00000000  00000-0  00000-0 2 14525
2 89996 072.3080 311.7653 2189092 296.7761 280.8222 00.01223943    06

# Worst residual: 27.45 km
# MJD 59927.000000 (2022 Dec 14  0:00)
XL8D89E
1 89996U 00000AAD 22348.49919926  .00000000  00000-0  00000-0 2 14526
2 89996 072.5083 311.8191 2261226 297.7943 285.0241 00.01228428    03
